KINEIS-2D               
1 62930U 25028C   26187.71565086  .00001520  00000+0  22934-3 0  9999
2 62930  97.9271 239.7852 0004496 127.9673 232.1944 14.75751591 75597
KINEIS-2E               
1 62931U 25028D   26187.73531000  .00001371  00000+0  20128-3 0  9998
2 62931  97.8945 238.9520 0002129 101.5057 258.6393 14.77071345 75666
KINEIS-2A               
1 62932U 25028E   26187.65329190  .00001418  00000+0  22638-3 0  9995
2 62932  98.1292 243.0677 0006049 104.1530 256.0350 14.73435779 75471
KINEIS-2B               
1 62934U 25028G   26187.83437883  .00001242  00000+0  19904-3 0  9993
2 62934  97.9658 240.3394 0005042  92.3776 267.8010 14.73436826 75550
KINEIS-4E               
1 63300U 25056A   26187.82224355  .00001386  00000+0  22704-3 0  9990
2 63300  97.9060 311.1748 0003093  99.8590 260.2967 14.72287102 70019
KINEIS-4C               
1 63301U 25056B   26187.83474591  .00001423  00000+0  23284-3 0  9997
2 63301  97.9113 311.4301 0002236 248.2866 111.8104 14.72308649 70026
KINEIS-4D               
1 63302U 25056C   26187.83845374  .00001456  00000+0  23741-3 0  9993
2 63302  97.9034 311.4137 0001035 266.0193  94.0897 14.72411013 70024
KINEIS-4A               
1 63303U 25056D   26187.87328562  .00001409  00000+0  23042-3 0  9995
2 63303  97.9128 311.3906 0001489 167.9672 192.1571 14.72318419 70021
KINEIS-4B               
1 63304U 25056E   26187.85597668  .00001435  00000+0  23457-3 0  9998
2 63304  97.9140 311.4299 0004637 221.6803 138.4052 14.72312883 70019
