{"fetched_at":"2026-07-07T07:58:39.480Z","source":"https://celestrak.org/NORAD/elements/gp.php?NAME=KINEIS&FORMAT=JSON","constellation":"kineis","records":[{"OBJECT_NAME":"KINEIS-2D","OBJECT_ID":"2025-028C","EPOCH":"2026-07-06T17:10:32.234304","CLASSIFICATION_TYPE":"U","MEAN_MOTION":14.75751591,"ECCENTRICITY":0.0004496,"INCLINATION":97.9271,"RA_OF_ASC_NODE":239.7852,"ARG_OF_PERICENTER":127.9673,"MEAN_ANOMALY":232.1944,"EPHEMERIS_TYPE":0,"NORAD_CAT_ID":62930,"ELEMENT_SET_NO":999,"REV_AT_EPOCH":7559,"BSTAR":0.00022934,"MEAN_MOTION_DOT":0.0000152,"MEAN_MOTION_DDOT":0},{"OBJECT_NAME":"KINEIS-2E","OBJECT_ID":"2025-028D","EPOCH":"2026-07-06T17:38:50.784000","CLASSIFICATION_TYPE":"U","MEAN_MOTION":14.77071345,"ECCENTRICITY":0.0002129,"INCLINATION":97.8945,"RA_OF_ASC_NODE":238.952,"ARG_OF_PERICENTER":101.5057,"MEAN_ANOMALY":258.6393,"EPHEMERIS_TYPE":0,"NORAD_CAT_ID":62931,"ELEMENT_SET_NO":999,"REV_AT_EPOCH":7566,"BSTAR":0.00020128,"MEAN_MOTION_DOT":0.00001371,"MEAN_MOTION_DDOT":0},{"OBJECT_NAME":"KINEIS-2A","OBJECT_ID":"2025-028E","EPOCH":"2026-07-06T15:40:44.420160","CLASSIFICATION_TYPE":"U","MEAN_MOTION":14.73435779,"ECCENTRICITY":0.0006049,"INCLINATION":98.1292,"RA_OF_ASC_NODE":243.0677,"ARG_OF_PERICENTER":104.153,"MEAN_ANOMALY":256.035,"EPHEMERIS_TYPE":0,"NORAD_CAT_ID":62932,"ELEMENT_SET_NO":999,"REV_AT_EPOCH":7547,"BSTAR":0.00022638,"MEAN_MOTION_DOT":0.00001418,"MEAN_MOTION_DDOT":0},{"OBJECT_NAME":"KINEIS-2B","OBJECT_ID":"2025-028G","EPOCH":"2026-07-06T20:01:30.330912","CLASSIFICATION_TYPE":"U","MEAN_MOTION":14.73436826,"ECCENTRICITY":0.0005042,"INCLINATION":97.9658,"RA_OF_ASC_NODE":240.3394,"ARG_OF_PERICENTER":92.3776,"MEAN_ANOMALY":267.801,"EPHEMERIS_TYPE":0,"NORAD_CAT_ID":62934,"ELEMENT_SET_NO":999,"REV_AT_EPOCH":7555,"BSTAR":0.00019904,"MEAN_MOTION_DOT":0.00001242,"MEAN_MOTION_DDOT":0},{"OBJECT_NAME":"KINEIS-4E","OBJECT_ID":"2025-056A","EPOCH":"2026-07-06T19:44:01.842720","CLASSIFICATION_TYPE":"U","MEAN_MOTION":14.72287102,"ECCENTRICITY":0.0003093,"INCLINATION":97.906,"RA_OF_ASC_NODE":311.1748,"ARG_OF_PERICENTER":99.859,"MEAN_ANOMALY":260.2967,"EPHEMERIS_TYPE":0,"NORAD_CAT_ID":63300,"ELEMENT_SET_NO":999,"REV_AT_EPOCH":7001,"BSTAR":0.00022704,"MEAN_MOTION_DOT":0.00001386,"MEAN_MOTION_DDOT":0},{"OBJECT_NAME":"KINEIS-4C","OBJECT_ID":"2025-056B","EPOCH":"2026-07-06T20:02:02.046624","CLASSIFICATION_TYPE":"U","MEAN_MOTION":14.72308649,"ECCENTRICITY":0.0002236,"INCLINATION":97.9113,"RA_OF_ASC_NODE":311.4301,"ARG_OF_PERICENTER":248.2866,"MEAN_ANOMALY":111.8104,"EPHEMERIS_TYPE":0,"NORAD_CAT_ID":63301,"ELEMENT_SET_NO":999,"REV_AT_EPOCH":7002,"BSTAR":0.00023284,"MEAN_MOTION_DOT":0.00001423,"MEAN_MOTION_DDOT":0},{"OBJECT_NAME":"KINEIS-4D","OBJECT_ID":"2025-056C","EPOCH":"2026-07-06T20:07:22.403136","CLASSIFICATION_TYPE":"U","MEAN_MOTION":14.72411013,"ECCENTRICITY":0.0001035,"INCLINATION":97.9034,"RA_OF_ASC_NODE":311.4137,"ARG_OF_PERICENTER":266.0193,"MEAN_ANOMALY":94.0897,"EPHEMERIS_TYPE":0,"NORAD_CAT_ID":63302,"ELEMENT_SET_NO":999,"REV_AT_EPOCH":7002,"BSTAR":0.00023741,"MEAN_MOTION_DOT":0.00001456,"MEAN_MOTION_DDOT":0},{"OBJECT_NAME":"KINEIS-4A","OBJECT_ID":"2025-056D","EPOCH":"2026-07-06T20:57:31.877568","CLASSIFICATION_TYPE":"U","MEAN_MOTION":14.72318419,"ECCENTRICITY":0.0001489,"INCLINATION":97.9128,"RA_OF_ASC_NODE":311.3906,"ARG_OF_PERICENTER":167.9672,"MEAN_ANOMALY":192.1571,"EPHEMERIS_TYPE":0,"NORAD_CAT_ID":63303,"ELEMENT_SET_NO":999,"REV_AT_EPOCH":7002,"BSTAR":0.00023042,"MEAN_MOTION_DOT":0.00001409,"MEAN_MOTION_DDOT":0},{"OBJECT_NAME":"KINEIS-4B","OBJECT_ID":"2025-056E","EPOCH":"2026-07-06T20:32:36.385152","CLASSIFICATION_TYPE":"U","MEAN_MOTION":14.72312883,"ECCENTRICITY":0.0004637,"INCLINATION":97.914,"RA_OF_ASC_NODE":311.4299,"ARG_OF_PERICENTER":221.6803,"MEAN_ANOMALY":138.4052,"EPHEMERIS_TYPE":0,"NORAD_CAT_ID":63304,"ELEMENT_SET_NO":999,"REV_AT_EPOCH":7001,"BSTAR":0.00023457,"MEAN_MOTION_DOT":0.00001435,"MEAN_MOTION_DDOT":0}]}
